{
  "type": "FeatureCollection",
  "name": "goldline-fantasy-waterways-v1",
  "description": "Presentation-only Lantern City waterways. They never participate in routing, territory classification, customer geography, or business truth. Real roads/buildings always render above them; where they cross, the real road remains authoritative and reads visually as a bridge. Routes are authored to form one coherent connected water system rather than isolated blue capsules.",
  "features": [
    {
      "type": "Feature",
      "properties": { "id": "western-canal", "name": "Western Canal", "width": 92 },
      "geometry": {
        "type": "LineString",
        "coordinates": [
          [-118.452, 34.046],
          [-118.438, 34.049],
          [-118.424, 34.054],
          [-118.411, 34.061],
          [-118.399, 34.069],
          [-118.389, 34.076],
          [-118.379, 34.081]
        ]
      }
    },
    {
      "type": "Feature",
      "properties": { "id": "hollywood-river", "name": "Hollywood River", "width": 84 },
      "geometry": {
        "type": "LineString",
        "coordinates": [
          [-118.401, 34.139],
          [-118.389, 34.128],
          [-118.376, 34.116],
          [-118.363, 34.107],
          [-118.349, 34.098],
          [-118.336, 34.089],
          [-118.322, 34.080],
          [-118.307, 34.074]
        ]
      }
    },
    {
      "type": "Feature",
      "properties": { "id": "silver-channel", "name": "Silver Channel", "width": 96 },
      "geometry": {
        "type": "LineString",
        "coordinates": [
          [-118.316, 34.140],
          [-118.307, 34.129],
          [-118.297, 34.118],
          [-118.288, 34.108],
          [-118.280, 34.098],
          [-118.273, 34.088],
          [-118.264, 34.078],
          [-118.253, 34.068],
          [-118.238, 34.060],
          [-118.220, 34.056]
        ]
      }
    },
    {
      "type": "Feature",
      "properties": { "id": "southern-aqueduct", "name": "Southern Aqueduct", "width": 80 },
      "geometry": {
        "type": "LineString",
        "coordinates": [
          [-118.452, 34.034],
          [-118.434, 34.039],
          [-118.416, 34.044],
          [-118.397, 34.049],
          [-118.379, 34.053],
          [-118.360, 34.056],
          [-118.341, 34.057],
          [-118.322, 34.056],
          [-118.303, 34.053],
          [-118.283, 34.049],
          [-118.263, 34.045],
          [-118.243, 34.042],
          [-118.219, 34.043]
        ]
      }
    },
    {
      "type": "Feature",
      "properties": { "id": "central-ring-north", "name": "Central Ring North", "width": 63 },
      "geometry": {
        "type": "LineString",
        "coordinates": [
          [-118.379, 34.081],
          [-118.365, 34.078],
          [-118.350, 34.076],
          [-118.336, 34.075],
          [-118.322, 34.076],
          [-118.307, 34.074],
          [-118.294, 34.071],
          [-118.280, 34.068]
        ]
      }
    },
    {
      "type": "Feature",
      "properties": { "id": "central-ring-south", "name": "Central Ring South", "width": 63 },
      "geometry": {
        "type": "LineString",
        "coordinates": [
          [-118.390, 34.063],
          [-118.375, 34.060],
          [-118.360, 34.058],
          [-118.341, 34.057],
          [-118.325, 34.060],
          [-118.310, 34.063],
          [-118.295, 34.066],
          [-118.280, 34.068]
        ]
      }
    },
    {
      "type": "Feature",
      "properties": { "id": "beverly-lagoon-spur", "name": "Beverly Lagoon Spur", "width": 55 },
      "geometry": {
        "type": "LineString",
        "coordinates": [
          [-118.411, 34.094],
          [-118.404, 34.088],
          [-118.397, 34.083],
          [-118.389, 34.079],
          [-118.379, 34.081]
        ]
      }
    },
    {
      "type": "Feature",
      "properties": { "id": "koreatown-crossing", "name": "Koreatown Crossing", "width": 53 },
      "geometry": {
        "type": "LineString",
        "coordinates": [
          [-118.350, 34.076],
          [-118.346, 34.070],
          [-118.344, 34.064],
          [-118.341, 34.057]
        ]
      }
    },
    {
      "type": "Feature",
      "properties": { "id": "silver-crossing", "name": "Silver Crossing", "width": 55 },
      "geometry": {
        "type": "LineString",
        "coordinates": [
          [-118.307, 34.074],
          [-118.301, 34.071],
          [-118.295, 34.068],
          [-118.289, 34.063],
          [-118.283, 34.057],
          [-118.283, 34.049]
        ]
      }
    },
    {
      "type": "Feature",
      "properties": { "id": "downtown-harbor-spur", "name": "Downtown Harbor Spur", "width": 67 },
      "geometry": {
        "type": "LineString",
        "coordinates": [
          [-118.280, 34.068],
          [-118.269, 34.063],
          [-118.258, 34.058],
          [-118.248, 34.053],
          [-118.243, 34.047],
          [-118.243, 34.042]
        ]
      }
    },
    {
      "type": "Feature",
      "properties": { "id": "echo-park-link", "name": "Echo Park Link", "width": 51 },
      "geometry": {
        "type": "LineString",
        "coordinates": [
          [-118.280, 34.068],
          [-118.272, 34.073],
          [-118.264, 34.078]
        ]
      }
    }
  ]
}
